STARLINK-34616          
1 66320U 25253B   25333.25002315  .00098339  00000+0  16656-2 0  9995
2 66320  42.9995  63.6299 0001582 259.5182 281.4977 15.50502680  4969
STARLINK-34615          
1 66321U 25253C   25333.25002315  .00075116  00000+0  80739-3 0  9998
2 66321  42.9997  63.2780 0002233 347.6218 336.9814 15.62819396  4803
STARLINK-35292          
1 66322U 25253D   25333.25002315 -.02071066  00000+0 -39946-1 0  9995
2 66322  42.9997  63.6060 0000859 265.9799 284.5583 15.50402507  4762
STARLINK-35309          
1 66323U 25253E   25333.25002315 -.00047041  00000+0 -80071-3 0  9997
2 66323  42.9995  63.5920 0000847 261.9614 294.3657 15.50584469  4763
STARLINK-35506          
1 66324U 25253F   25333.25002315 -.00010818  00000+0 -17892-3 0  9991
2 66324  42.9996  63.6106 0001515 260.2293 288.4332 15.50563723  4854
STARLINK-35504          
1 66325U 25253G   25333.25002315 -.00025072  00000+0 -42304-3 0  9996
2 66325  42.9995  63.6016 0001076 260.2002 292.2954 15.50571713  4765
STARLINK-35479          
1 66326U 25253H   25333.25002315 -.00029353  00000+0 -49654-3 0  9998
2 66326  42.9993  63.5857 0001003 252.8577 305.3921 15.50571897  4853
STARLINK-35507          
1 66327U 25253J   25333.25002315 -.00025540  00000+0 -43105-3 0  9998
2 66327  42.9996  63.6157 0001505 259.1069 287.6381 15.50571705  4854
STARLINK-35460          
1 66328U 25253K   25333.25002315 -.00023326  00000+0 -39310-3 0  9992
2 66328  42.9993  63.5705 0000932 248.3344 315.6647 15.50570218  4854
STARLINK-35505          
1 66329U 25253L   25333.25002315 -.00020487  00000+0 -34442-3 0  9999
2 66329  42.9997  63.6211 0000900 254.7464 290.0810 15.50570407  4769
STARLINK-35512          
1 66330U 25253M   25333.25002315  .00034927  00000+0  59891-3 0  9998
2 66330  42.9995  63.5959 0001118 254.0262 300.3804 15.50560854  4761
STARLINK-35257          
1 66331U 25253N   25333.25002315 -.00019370  00000+0 -32527-3 0  9993
2 66331  42.9996  63.5572 0001580 263.3110 306.4371 15.50569263  4491
